IRIDIUM 63              
1 25286U 98021B   25348.29864175  .00000512  00000+0  16696-3 0  9995
2 25286  86.3984   6.5603 0002399  88.5305 271.6167 14.36737047449701
IRIDIUM 69              
1 25319U 98026A   25348.17295692  .00000616  00000+0  18481-3 0  9995
2 25319  86.3977  19.3327 0004070 122.4977 237.6616 14.41218895448987
IRIDIUM 71              
1 25320U 98026B   25348.09020462  .00000391  00000+0  11474-3 0  9994
2 25320  86.3976  14.0402 0002104 150.6116 209.5203 14.41318855449504
IRIDIUM 73              
1 25344U 98032C   25348.22607572  .00000929  00000+0  22498-3 0  9990
2 25344  86.4407 330.3571 0002962  92.7190 267.4355 14.51992397456689
IRIDIUM 82              
1 25467U 98051A   25348.13595272  .00042403  00000+0  78587-3 0  9993
2 25467  86.3612  20.4059 0059991 329.7562  30.0237 15.46778724451612
